{"type": "FeatureCollection", "features": [ {"type": "Feature", "properties": {"norad_id": 66436, "name": "STARLINK-35501", "group": "last-30-days", "lat": -40.238334723235305, "lon": -40.704099393802416, "alt_km": 416.28974271226525, "timestamp": "2025-12-08T03:50:05.782720+00:00", "meta": {"OBJECT_NAME": "STARLINK-35501", "OBJECT_ID": "2025-259Q", "EPOCH": "2025-12-06T16:45:00.432288", "MEAN_MOTION": 15.50605966, "ECCENTRICITY": 0.00014143, "INCLINATION": 43.0008, "RA_OF_ASC_NODE": 82.6107, "ARG_OF_PERICENTER": 280.4896, "MEAN_ANOMALY": 79.5804, "EPHEMERIS_TYPE": 0, "CLASSIFICATION_TYPE": "U", "NORAD_CAT_ID": 66436, "ELEMENT_SET_NO": 999, "REV_AT_EPOCH": 523, "BSTAR": 0.0023641253, "MEAN_MOTION_DOT": 0.00141011, "MEAN_MOTION_DDOT": 0}, "tle": {"line1": "1 66436U 25259Q   25340.69792167  .00141011  00000+0  23641-2 0  9994", "line2": "2 66436  43.0008  82.6107 0001414 280.4896  79.5804 15.50605966  5239"}}, "geometry": {"type": "Point", "coordinates": [-40.704099393802416, -40.238334723235305]}}, {"type": "Feature", "properties": {"norad_id": 66437, "name": "STARLINK-35474", "group": "last-30-days", "lat": -40.800353676025246, "lon": -38.08640441016478, "alt_km": 415.89157127996987, "timestamp": "2025-12-08T03:50:05.782730+00:00", "meta": {"OBJECT_NAME": "STARLINK-35474", "OBJECT_ID": "2025-259R", "EPOCH": "2025-12-06T16:44:30.685632", "MEAN_MOTION": 15.50622786, "ECCENTRICITY": 0.00020021, "INCLINATION": 43.0007, "RA_OF_ASC_NODE": 82.6072, "ARG_OF_PERICENTER": 283.6406, "MEAN_ANOMALY": 76.4231, "EPHEMERIS_TYPE": 0, "CLASSIFICATION_TYPE": "U", "NORAD_CAT_ID": 66437, "ELEMENT_SET_NO": 999, "REV_AT_EPOCH": 523, "BSTAR": 0.0025207389, "MEAN_MOTION_DOT": 0.00150655, "MEAN_MOTION_DDOT": 0}, "tle": {"line1": "1 66437U 25259R   25340.69757738  .00150655  00000+0  25207-2 0  9994", "line2": "2 66437  43.0007  82.6072 0002002 283.6406  76.4231 15.50622786  5235"}}, "geometry": {"type": "Point", "coordinates": [-38.08640441016478, -40.800353676025246]}}, {"type": "Feature", "properties": {"norad_id": 66438, "name": "STARLINK-34681", "group": "last-30-days", "lat": -41.07395633714144, "lon": -36.689684279419666, "alt_km": 415.77973004863907, "timestamp": "2025-12-08T03:50:05.782740+00:00", "meta": {"OBJECT_NAME": "STARLINK-34681", "OBJECT_ID": "2025-259S", "EPOCH": "2025-12-07T03:33:19.519776", "MEAN_MOTION": 15.50632823, "ECCENTRICITY": 0.00032717, "INCLINATION": 43.0028, "RA_OF_ASC_NODE": 79.9688, "ARG_OF_PERICENTER": 285.7326, "MEAN_ANOMALY": 74.3173, "EPHEMERIS_TYPE": 0, "CLASSIFICATION_TYPE": "U", "NORAD_CAT_ID": 66438, "ELEMENT_SET_NO": 999, "REV_AT_EPOCH": 519, "BSTAR": 0.0018627532, "MEAN_MOTION_DOT": 0.0011072, "MEAN_MOTION_DDOT": 0}, "tle": {"line1": "1 66438U 25259S   25341.14814259  .00110720  00000+0  18628-2 0  9996", "line2": "2 66438  43.0028  79.9688 0003271 285.7326  74.3173 15.50632823  5194"}}, "geometry": {"type": "Point", "coordinates": [-36.689684279419666, -41.07395633714144]}}, {"type": "Feature", "properties": {"norad_id": 66439, "name": "STARLINK-35327", "group": "last-30-days", "lat": -39.76037748594212, "lon": -42.71227763942432, "alt_km": 415.64885026523007, "timestamp": "2025-12-08T03:50:05.782752+00:00", "meta": {"OBJECT_NAME": "STARLINK-35327", "OBJECT_ID": "2025-259T", "EPOCH": "2025-12-06T15:12:44.352288", "MEAN_MOTION": 15.50639465, "ECCENTRICITY": 0.00023373, "INCLINATION": 43.0013, "RA_OF_ASC_NODE": 82.9909, "ARG_OF_PERICENTER": 280.0229, "MEAN_ANOMALY": 80.0367, "EPHEMERIS_TYPE": 0, "CLASSIFICATION_TYPE": "U", "NORAD_CAT_ID": 66439, "ELEMENT_SET_NO": 999, "REV_AT_EPOCH": 522, "BSTAR": 0.0023870781, "MEAN_MOTION_DOT": 0.00142587, "MEAN_MOTION_DDOT": 0}, "tle": {"line1": "1 66439U 25259T   25340.63384667  .00142587  00000+0  23871-2 0  9997", "line2": "2 66439  43.0013  82.9909 0002337 280.0229  80.0367 15.50639465  5223"}}, "geometry": {"type": "Point", "coordinates": [-42.71227763942432, -39.76037748594212]}}, {"type": "Feature", "properties": {"norad_id": 66440, "name": "STARLINK-35405", "group": "last-30-days", "lat": -41.469865766995845, "lon": -34.45242865656053, "alt_km": 416.16520567540647, "timestamp": "2025-12-08T03:50:05.782762+00:00", "meta": {"OBJECT_NAME": "STARLINK-35405", "OBJECT_ID": "2025-259U", "EPOCH": "2025-12-07T05:05:35.128032", "MEAN_MOTION": 15.50588739, "ECCENTRICITY": 0.0002348, "INCLINATION": 43.003, "RA_OF_ASC_NODE": 79.5918, "ARG_OF_PERICENTER": 257.1606, "MEAN_ANOMALY": 102.8992, "EPHEMERIS_TYPE": 0, "CLASSIFICATION_TYPE": "U", "NORAD_CAT_ID": 66440, "ELEMENT_SET_NO": 999, "REV_AT_EPOCH": 531, "BSTAR": 0.0017892471, "MEAN_MOTION_DOT": 0.00106099, "MEAN_MOTION_DDOT": 0}, "tle": {"line1": "1 66440U 25259U   25341.21221213  .00106099  00000+0  17892-2 0  9995", "line2": "2 66440  43.0030  79.5918 0002348 257.1606 102.8992 15.50588739  5316"}}, "geometry": {"type": "Point", "coordinates": [-34.45242865656053, -41.469865766995845]}}, {"type": "Feature", "properties": {"norad_id": 66441, "name": "STARLINK-35426", "group": "last-30-days", "lat": -42.16447397634119, "lon": -29.59626809456142, "alt_km": 416.9379227168474, "timestamp": "2025-12-08T03:50:05.782773+00:00", "meta": {"OBJECT_NAME": "STARLINK-35426", "OBJECT_ID": "2025-259V", "EPOCH": "2025-12-06T13:37:30.745344", "MEAN_MOTION": 15.50742109, "ECCENTRICITY": 0.00013055, "INCLINATION": 43, "RA_OF_ASC_NODE": 83.3507, "ARG_OF_PERICENTER": 142.1834, "MEAN_ANOMALY": 217.9118, "EPHEMERIS_TYPE": 0, "CLASSIFICATION_TYPE": "U", "NORAD_CAT_ID": 66441, "ELEMENT_SET_NO": 999, "REV_AT_EPOCH": 521, "BSTAR": 0.0021162366, "MEAN_MOTION_DOT": 0.00126568, "MEAN_MOTION_DDOT": 0}, "tle": {"line1": "1 66441U 25259V   25340.56771696  .00126568  00000+0  21162-2 0  9996", "line2": "2 66441  43.0000  83.3507 0001305 142.1834 217.9118 15.50742109  5219"}}, "geometry": {"type": "Point", "coordinates": [-29.59626809456142, -42.16447397634119]}}, {"type": "Feature", "properties": {"norad_id": 66442, "name": "STARLINK-34724", "group": "last-30-days", "lat": -42.51447076335475, "lon": -26.28821110681711, "alt_km": 415.2180309778605, "timestamp": "2025-12-08T03:50:05.782783+00:00", "meta": {"OBJECT_NAME": "STARLINK-34724", "OBJECT_ID": "2025-259W", "EPOCH": "2025-12-06T13:37:01.226784", "MEAN_MOTION": 15.50746054, "ECCENTRICITY": 0.00014223, "INCLINATION": 43.0003, "RA_OF_ASC_NODE": 83.3503, "ARG_OF_PERICENTER": 255.0351, "MEAN_ANOMALY": 105.0352, "EPHEMERIS_TYPE": 0, "CLASSIFICATION_TYPE": "U", "NORAD_CAT_ID": 66442, "ELEMENT_SET_NO": 999, "REV_AT_EPOCH": 521, "BSTAR": 0.0031841465, "MEAN_MOTION_DOT": 0.00192258, "MEAN_MOTION_DDOT": 0}, "tle": {"line1": "1 66442U 25259W   25340.56737531  .00192258  00000+0  31841-2 0  9991", "line2": "2 66442  43.0003  83.3503 0001422 255.0351 105.0352 15.50746054  5217"}}, "geometry": {"type": "Point", "coordinates": [-26.28821110681711, -42.51447076335475]}}, {"type": "Feature", "properties": {"norad_id": 66443, "name": "STARLINK-35219", "group": "last-30-days", "lat": -42.686639939572785, "lon": -24.184576811865128, "alt_km": 415.42630237696176, "timestamp": "2025-12-08T03:50:05.782792+00:00", "meta": {"OBJECT_NAME": "STARLINK-35219", "OBJECT_ID": "2025-259X", "EPOCH": "2025-12-06T13:36:31.548384", "MEAN_MOTION": 15.50724046, "ECCENTRICITY": 0.00015671, "INCLINATION": 43.0012, "RA_OF_ASC_NODE": 83.3472, "ARG_OF_PERICENTER": 246.0575, "MEAN_ANOMALY": 114.0122, "EPHEMERIS_TYPE": 0, "CLASSIFICATION_TYPE": "U", "NORAD_CAT_ID": 66443, "ELEMENT_SET_NO": 999, "REV_AT_EPOCH": 510, "BSTAR": 0.0027615281, "MEAN_MOTION_DOT": 0.00166001, "MEAN_MOTION_DDOT": 0}, "tle": {"line1": "1 66443U 25259X   25340.56703181  .00166001  00000+0  27615-2 0  9997", "line2": "2 66443  43.0012  83.3472 0001567 246.0575 114.0122 15.50724046  5101"}}, "geometry": {"type": "Point", "coordinates": [-24.184576811865128, -42.686639939572785]}}, {"type": "Feature", "properties": {"norad_id": 66444, "name": "STARLINK-35360", "group": "last-30-days", "lat": -42.97652486862174, "lon": -16.95151229238618, "alt_km": 414.58177160032665, "timestamp": "2025-12-08T03:50:05.782804+00:00", "meta": {"OBJECT_NAME": "STARLINK-35360", "OBJECT_ID": "2025-259Y", "EPOCH": "2025-12-06T15:07:47.723808", "MEAN_MOTION": 15.50706932, "ECCENTRICITY": 0.00032908, "INCLINATION": 43.001, "RA_OF_ASC_NODE": 82.962, "ARG_OF_PERICENTER": 267.8962, "MEAN_ANOMALY": 92.1521, "EPHEMERIS_TYPE": 0, "CLASSIFICATION_TYPE": "U", "NORAD_CAT_ID": 66444, "ELEMENT_SET_NO": 999, "REV_AT_EPOCH": 522, "BSTAR": 0.0024220976, "MEAN_MOTION_DOT": 0.00145089, "MEAN_MOTION_DDOT": 0}, "tle": {"line1": "1 66444U 25259Y   25340.63041347  .00145089  00000+0  24221-2 0  9998", "line2": "2 66444  43.0010  82.9620 0003290 267.8962  92.1521 15.50706932  5222"}}, "geometry": {"type": "Point", "coordinates": [-16.95151229238618, -42.97652486862174]}}, {"type": "Feature", "properties": {"norad_id": 66445, "name": "STARLINK-34698", "group": "last-30-days", "lat": -42.850396131557474, "lon": -21.44965313274196, "alt_km": 415.29839772525884, "timestamp": "2025-12-08T03:50:05.782815+00:00", "meta": {"OBJECT_NAME": "STARLINK-34698", "OBJECT_ID": "2025-259Z", "EPOCH": "2025-12-06T13:36:01.846656", "MEAN_MOTION": 15.50730706, "ECCENTRICITY": 0.00016523, "INCLINATION": 43.0011, "RA_OF_ASC_NODE": 83.3434, "ARG_OF_PERICENTER": 246.4478, "MEAN_ANOMALY": 113.6208, "EPHEMERIS_TYPE": 0, "CLASSIFICATION_TYPE": "U", "NORAD_CAT_ID": 66445, "ELEMENT_SET_NO": 999, "REV_AT_EPOCH": 510, "BSTAR": 0.0028741918, "MEAN_MOTION_DOT": 0.00172984, "MEAN_MOTION_DDOT": 0}, "tle": {"line1": "1 66445U 25259Z   25340.56668804  .00172984  00000+0  28742-2 0  9990", "line2": "2 66445  43.0011  83.3434 0001652 246.4478 113.6208 15.50730706  5101"}}, "geometry": {"type": "Point", "coordinates": [-21.44965313274196, -42.850396131557474]}}]}